IRIDIUM 155             
1 43573U 18061E   22298.27661225  .00000195  00000+0  62459-4 0  9996
2 43573  86.3954 252.8299 0002425  79.8279 280.3190 14.34214299222593
IRIDIUM 154             
1 43574U 18061F   22298.32735674  .00000206  00000+0  66522-4 0  9991
2 43574  86.3958 252.8782 0002228  92.7354 267.4097 14.34216540222654
IRIDIUM 163             
1 43575U 18061G   22298.30831953  .00000237  00000+0  77500-4 0  9999
2 43575  86.3955 252.8425 0001842  85.5477 274.5929 14.34216096222629
IRIDIUM 156             
1 43576U 18061H   22298.28295392  .00000204  00000+0  65867-4 0  9995
2 43576  86.3955 252.8587 0002063  78.3479 281.7948 14.34217567222611
IRIDIUM 164             
1 43577U 18061J   22298.33370434  .00000205  00000+0  66293-4 0  9998
2 43577  86.3957 252.8574 0002093  92.3029 267.8406 14.34216484222666
IRIDIUM 159             
1 43578U 18061K   22298.30198899  .00000197  00000+0  63342-4 0  9991
2 43578  86.3955 252.8356 0002195  91.2948 268.8499 14.34213879222628
IRIDIUM 180             
1 43922U 19002A   22298.44101124  .00000230  00000+0  74966-4 0  9992
2 43922  86.4037 189.7281 0001913  97.0448 263.0966 14.34221089198253
IRIDIUM 176             
1 43923U 19002B   22298.41922289  .00000692  00000+0  10589-3 0  9995
2 43923  86.6171 189.7760 0002397  87.9686 272.1806 14.72259718203451
IRIDIUM 168             
1 43924U 19002C   22298.78350270  .00000221  00000+0  71947-4 0  9995
2 43924  86.4039 189.6248 0002097  90.8239 269.3197 14.34220185198286
IRIDIUM 173             
1 43925U 19002D   22298.42197615  .00000233  00000+0  76039-4 0  9999
2 43925  86.4036 189.7189 0002010  90.3317 269.8109 14.34220375198218
IRIDIUM 169             
1 43926U 19002E   22298.78947497  .00000252  00000+0  75864-4 0  9996
2 43926  86.4276 221.1110 0006117  57.5411 302.6378 14.38596430198959
IRIDIUM 172             
1 43927U 19002F   22298.41561973  .00000231  00000+0  75244-4 0  9997
2 43927  86.4037 189.7256 0001987  93.7403 266.4020 14.34223780198220
IRIDIUM 175             
1 43928U 19002G   22298.41304117  .00000681  00000+0  10402-3 0  9996
2 43928  86.6173 189.6130 0002575  88.8996 271.2516 14.72263887203449
IRIDIUM 171             
1 43929U 19002H   22298.46637905  .00000226  00000+0  73678-4 0  9996
2 43929  86.4047 189.8626 0002116  91.1187 269.0252 14.34220383198223
IRIDIUM 170             
1 43930U 19002J   22298.42539529  .00000685  00000+0  10477-3 0  9993
2 43930  86.6171 189.7786 0002516  89.3350 270.8156 14.72264402203464
IRIDIUM 167             
1 43931U 19002K   22298.46003812  .00000222  00000+0  72237-4 0  9999
2 43931  86.4038 189.7177 0001984  94.7295 265.4128 14.34216195198225
